[{"OBJECT_NAME":"KUIPER-00080","OBJECT_ID":"2025-151M","EPOCH":"2026-03-09T22:17:34.050048","MEAN_MOTION":14.79937756,"ECCENTRICITY":8.294e-5,"INCLINATION":51.8982,"RA_OF_ASC_NODE":299.5145,"ARG_OF_PERICENTER":86.1378,"MEAN_ANOMALY":273.9679,"EPHEMERIS_TYPE":0,"CLASSIFICATION_TYPE":"U","NORAD_CAT_ID":64827,"ELEMENT_SET_NO":999,"REV_AT_EPOCH":3534,"BSTAR":0.00028328024,"MEAN_MOTION_DOT":1.939e-5,"MEAN_MOTION_DDOT":0},{"OBJECT_NAME":"GEESAT-6 01","OBJECT_ID":"2025-214B","EPOCH":"2026-03-09T22:49:09.909696","MEAN_MOTION":14.83119835,"ECCENTRICITY":0.00123553,"INCLINATION":49.9859,"RA_OF_ASC_NODE":48.2584,"ARG_OF_PERICENTER":212.3001,"MEAN_ANOMALY":147.7181,"EPHEMERIS_TYPE":0,"CLASSIFICATION_TYPE":"U","NORAD_CAT_ID":65713,"ELEMENT_SET_NO":999,"REV_AT_EPOCH":2477,"BSTAR":0.00034422845,"MEAN_MOTION_DOT":2.612e-5,"MEAN_MOTION_DDOT":0}]
